From: horizons@ssd.jpl.nasa.gov (Horizons Ephemeris System)
Subject: [Horizons] SMALL BODY #C(500@10)_T(La Sagra (P/2012 NJ)) (1/1)
Date: February 16, 2021 at 11:00:03 PM PST

Automated mail xmit by MAIL_REQUEST, PID= 20233 Tue Feb 16 23:00:03 2021
++++++++++++++++++++++++++++++++ (part 1 of 1)  +++++++++++++++++++++++++++++++


*******************************************************************************
Ephemeris / MAIL_REQUEST Tue Feb 16 23:00:03 2021 Pasadena, USA  / Horizons
*******************************************************************************
Target body name: La Sagra (P/2012 NJ)            {source: JPL#32}
Center body name: Sun (10)                        {source: DE431}
Center-site name: BODY CENTER
*******************************************************************************
Start time      : A.D. 2011-Dec-13 00:00:00.0000 TDB
Stop  time      : A.D. 2012-Dec-13 00:00:00.0000 TDB
Step-size       : 10080 minutes
*******************************************************************************
Center geodetic : 0.00000000,0.00000000,0.0000000 {E-lon(deg),Lat(deg),Alt(km)}
Center cylindric: 0.00000000,0.00000000,0.0000000 {E-lon(deg),Dxy(km),Dz(km)}
Center radii    : 696000.0 x 696000.0 x 696000.0 k{Equator, meridian, pole}    
Small perturbers: Yes                             {source: SB431-N16}
Output units    : AU-D
Output type     : GEOMETRIC cartesian states
Output format   : 6 (LT, range, and range-rate)
Reference frame : Ecliptic of J2000.0
*******************************************************************************
Initial IAU76/J2000 heliocentric ecliptic osculating elements (au, days, deg.):
 EPOCH=  2456158.5 ! 2012-Aug-19.0000000 (TDB)    RMSW= n.a.                  
  EC= .8480620371034709   QR= 1.291890110909202   TP= 2456091.5902811196      
  OM= 315.7631853612457   W= 338.4139063128238    IN= 84.37546091182008       
 Equivalent ICRF heliocentric equatorial cartesian coordinates (au, au/d):
  X= 1.022833491527260E+00  Y=-1.136853145465764E+00  Z= 4.021946094609974E-01
 VX=-4.242917257015286E-04 VY=-4.561959343045825E-03 VZ= 1.784602027038952E-02
Comet physical (GM= km^3/s^2; RAD= km):                                        
  GM= n.a.                RAD= n.a.                                           
  M1=  14.8     M2=  n.a.     k1=  4.5    k2= n.a.     PHCOF= n.a.            
*******************************************************************************
           JDTDB,            Calendar Date (TDB),                     LT,                     RG,                     RR,
**************************************************************************************************************************
$$SOE
2455908.500000000, A.D. 2011-Dec-13 00:00:00.0000,  1.519557674712046E-02,  2.631032554153399E+00, -9.384654497142292E-03,
2455915.500000000, A.D. 2011-Dec-20 00:00:00.0000,  1.481564555649456E-02,  2.565249507710992E+00, -9.409521275341691E-03,
2455922.500000000, A.D. 2011-Dec-27 00:00:00.0000,  1.443483504749358E-02,  2.499314212011527E+00, -9.427972708763915E-03,
2455929.500000000, A.D. 2012-Jan-03 00:00:00.0000,  1.405342782998386E-02,  2.433275599436502E+00, -9.438827508470200E-03,
2455936.500000000, A.D. 2012-Jan-10 00:00:00.0000,  1.367175828542971E-02,  2.367191566341729E+00, -9.440700284334837E-03,
2455943.500000000, A.D. 2012-Jan-17 00:00:00.0000,  1.329022152448429E-02,  2.301130524016115E+00, -9.431965757853674E-03,
2455950.500000000, A.D. 2012-Jan-24 00:00:00.0000,  1.290928389999219E-02,  2.235173218951633E+00, -9.410717503176924E-03,
2455957.500000000, A.D. 2012-Jan-31 00:00:00.0000,  1.252949530644402E-02,  2.169414862427868E+00, -9.374720791285112E-03,
2455964.500000000, A.D. 2012-Feb-07 00:00:00.0000,  1.215150350586583E-02,  2.103967610962883E+00, -9.321359545048971E-03,
2455971.500000000, A.D. 2012-Feb-14 00:00:00.0000,  1.177607070750482E-02,  2.038963436996804E+00, -9.247578074531748E-03,
2455978.500000000, A.D. 2012-Feb-21 00:00:00.0000,  1.140409258165263E-02,  1.974557421033273E+00, -9.149819333907377E-03,
2455985.500000000, A.D. 2012-Feb-28 00:00:00.0000,  1.103661978563045E-02,  1.910931478748238E+00, -9.023963153307918E-03,
2455992.500000000, A.D. 2012-Mar-06 00:00:00.0000,  1.067488188892610E-02,  1.848298503499011E+00, -8.865270661178768E-03,
2455999.500000000, A.D. 2012-Mar-13 00:00:00.0000,  1.032031325560717E-02,  1.786906847725196E+00, -8.668345097445308E-03,
2456006.500000000, A.D. 2012-Mar-20 00:00:00.0000,  9.974579939546445E-03,  1.727044979712616E+00, -8.427123836735774E-03,
2456013.500000000, A.D. 2012-Mar-27 00:00:00.0000,  9.639605918683481E-03,  1.669046025914885E+00, -8.134923446351701E-03,
2456020.500000000, A.D. 2012-Apr-03 00:00:00.0000,  9.317595934998981E-03,  1.613291725572393E+00, -7.784568282619334E-03,
2456027.500000000, A.D. 2012-Apr-10 00:00:00.0000,  9.011050820759627E-03,  1.560215084369338E+00, -7.368640404710991E-03,
2456034.500000000, A.D. 2012-Apr-17 00:00:00.0000,  8.722769560059159E-03,  1.510300731378488E+00, -6.879892905576014E-03,
2456041.500000000, A.D. 2012-Apr-24 00:00:00.0000,  8.455830676024522E-03,  1.464081696355839E+00, -6.311864569950316E-03,
2456048.500000000, A.D. 2012-May-01 00:00:00.0000,  8.213544349001498E-03,  1.422131119261447E+00, -5.659713115494300E-03,
2456055.500000000, A.D. 2012-May-08 00:00:00.0000,  7.999366793857605E-03,  1.385047425148991E+00, -4.921239040104560E-03,
2456062.500000000, A.D. 2012-May-15 00:00:00.0000,  7.816770949001519E-03,  1.353431934663541E+00, -4.097998717304512E-03,
2456069.500000000, A.D. 2012-May-22 00:00:00.0000,  7.669073462426212E-03,  1.327858907603551E+00, -3.196313340326593E-03,
2456076.500000000, A.D. 2012-May-29 00:00:00.0000,  7.559227507342904E-03,  1.308839670059901E+00, -2.227900765696224E-03,
2456083.500000000, A.D. 2012-Jun-05 00:00:00.0000,  7.489602629677172E-03,  1.296784496191479E+00, -1.209840754242328E-03,
2456090.500000000, A.D. 2012-Jun-12 00:00:00.0000,  7.461783128061819E-03,  1.291967698803108E+00, -1.636735632939333E-04,
2456097.500000000, A.D. 2012-Jun-19 00:00:00.0000,  7.476420662510763E-03,  1.294502109328527E+00,  8.863561473552734E-04,
2456104.500000000, A.D. 2012-Jun-26 00:00:00.0000,  7.533170707005871E-03,  1.304328074936879E+00,  1.915622303347965E-03,
2456111.500000000, A.D. 2012-Jul-03 00:00:00.0000,  7.630726377429902E-03,  1.321219315657737E+00,  2.901522469309681E-03,
2456118.500000000, A.D. 2012-Jul-10 00:00:00.0000,  7.766942339149988E-03,  1.344804378314130E+00,  3.825451338154690E-03,
2456125.500000000, A.D. 2012-Jul-17 00:00:00.0000,  7.939023315064729E-03,  1.374599275679113E+00,  4.673983305634535E-03,
2456132.500000000, A.D. 2012-Jul-24 00:00:00.0000,  8.143742265551054E-03,  1.410045263162523E+00,  5.439163729776106E-03,
2456139.500000000, A.D. 2012-Jul-31 00:00:00.0000,  8.377654463060274E-03,  1.450545904678281E+00,  6.118054134815852E-03,
2456146.500000000, A.D. 2012-Aug-07 00:00:00.0000,  8.637282681094037E-03,  1.495499137121605E+00,  6.711807847158559E-03,
2456153.500000000, A.D. 2012-Aug-14 00:00:00.0000,  8.919260430663569E-03,  1.544322070993130E+00,  7.224563297373466E-03,
2456160.500000000, A.D. 2012-Aug-21 00:00:00.0000,  9.220430687181551E-03,  1.596468084430343E+00,  7.662378107586109E-03,
2456167.500000000, A.D. 2012-Aug-28 00:00:00.0000,  9.537904640938530E-03,  1.651436995537234E+00,  8.032330889150960E-03,
2456174.500000000, A.D. 2012-Sep-04 00:00:00.0000,  9.869088414977065E-03,  1.708779688440805E+00,  8.341837751374478E-03,
2456181.500000000, A.D. 2012-Sep-11 00:00:00.0000,  1.021168651360342E-02,  1.768098710382358E+00,  8.598181102367590E-03,
2456188.500000000, A.D. 2012-Sep-18 00:00:00.0000,  1.056368994642089E-02,  1.829046215457611E+00,  8.808215063290013E-03,
2456195.500000000, A.D. 2012-Sep-25 00:00:00.0000,  1.092335524853902E-02,  1.891320332078524E+00,  8.978202877020103E-03,
2456202.500000000, A.D. 2012-Oct-02 00:00:00.0000,  1.128917895492489E-02,  1.954660743344234E+00,  9.113748789636214E-03,
2456209.500000000, A.D. 2012-Oct-09 00:00:00.0000,  1.165987067733029E-02,  2.018844025455500E+00,  9.219792230499419E-03,
2456216.500000000, A.D. 2012-Oct-16 00:00:00.0000,  1.203432677399062E-02,  2.083679088764382E+00,  9.300639488876460E-03,
2456223.500000000, A.D. 2012-Oct-23 00:00:00.0000,  1.241160575533898E-02,  2.149002919405655E+00,  9.360015575517383E-03,
2456230.500000000, A.D. 2012-Oct-30 00:00:00.0000,  1.279090599379759E-02,  2.214676719866823E+00,  9.401124840344404E-03,
2456237.500000000, A.D. 2012-Nov-06 00:00:00.0000,  1.317154593517407E-02,  2.280582482697598E+00,  9.426713201671174E-03,
2456244.500000000, A.D. 2012-Nov-13 00:00:00.0000,  1.355294678443845E-02,  2.346619992645123E+00,  9.439127818423867E-03,
2456251.500000000, A.D. 2012-Nov-20 00:00:00.0000,  1.393461751160506E-02,  2.412704230502895E+00,  9.440371909734267E-03,
2456258.500000000, A.D. 2012-Nov-27 00:00:00.0000,  1.431614195231755E-02,  2.478763139646305E+00,  9.432153430113908E-03,
2456265.500000000, A.D. 2012-Dec-04 00:00:00.0000,  1.469716775346593E-02,  2.544735712025548E+00,  9.415927898644535E-03,
2456272.500000000, A.D. 2012-Dec-11 00:00:00.0000,  1.507739695237098E-02,  2.610570357001984E+00,  9.392936360075642E-03,
$$EOE
**************************************************************************************************************************
Coordinate system description:

 Ecliptic at the standard reference epoch

   Reference epoch: J2000.0
   X-Y plane: adopted Earth orbital plane at the reference epoch
              Note: obliquity of 84381.448 arcseconds (IAU76) wrt ICRF equator
   X-axis   : ICRF
   Z-axis   : perpendicular to the X-Y plane in the directional (+ or -) sense
              of Earth's north pole at the reference epoch.

 Symbol meaning [1 au= 149597870.700 km, 1 day= 86400.0 s]:

   JDTDB    Julian Day Number, Barycentric Dynamical Time
     LT     One-way down-leg Newtonian light-time (day)
     RG     Range; distance from coordinate center (au)
     RR     Range-rate; radial velocity wrt coord. center (au/day)

Geometric states/elements have no aberrations applied.


Computations by ...
    Solar System Dynamics Group, Horizons On-Line Ephemeris System
    4800 Oak Grove Drive, Jet Propulsion Laboratory
    Pasadena, CA  91109   USA
    Information  : https://ssd.jpl.nasa.gov/
    Documentation: https://ssd.jpl.nasa.gov/?horizons_doc
    Connect      : https://ssd.jpl.nasa.gov/?horizons (browser)
                   telnet ssd.jpl.nasa.gov 6775       (command-line)
                   e-mail command interface available
                   Script and CGI interfaces available
    Author       : Jon.D.Giorgini@jpl.nasa.gov
*******************************************************************************
